start=new Date('2022-08-06T00:00:00.000Z').valueOf();
sats=[{"SEMIMAJOR_AXIS":"6925.375","EPOCH":"2022-08-05T20:06:16.233696","REF_FRAME":"TEME","INCLINATION":"53.0560","APOAPSIS":"548.248","MEAN_MOTION_DDOT":"0.0000000000000","RA_OF_ASC_NODE":"5.7532","CENTER_NAME":"EARTH","FILE":"3530042","RCS_SIZE":"LARGE","NORAD_CAT_ID":"45731","LAUNCH_DATE":"2020-06-13","TIME_SYSTEM":"UTC","GP_ID":"209654443","TLE_LINE1":"1 45731U 20038B   22217.83768789  .00001089  00000-0  91996-4 0  9999","EPHEMERIS_TYPE":"0","ELEMENT_SET_NO":"999","ARG_OF_PERICENTER":"92.0379","MEAN_MOTION_DOT":"0.00001089","ECCENTRICITY":"0.00014560","COUNTRY_CODE":"US","MEAN_ELEMENT_THEORY":"SGP4","MEAN_ANOMALY":"268.0777","PERIAPSIS":"546.231","OBJECT_TYPE":"PAYLOAD","SITE":"AFETR","DECAY_DATE":null,"TLE_LINE2":"2 45731  53.0560   5.7532 0001456  92.0379 268.0777 15.06391457118467","PERIOD":"95.593","OBJECT_NAME":"STARLINK-1465","OBJECT_ID":"2020-038B","BSTAR":"0.00009199600000","CLASSIFICATION_TYPE":"U","REV_AT_EPOCH":"11846","MEAN_MOTION":"15.06391457"},{"FILE":"3529842","CENTER_NAME":"EARTH","RCS_SIZE":"LARGE","APOAPSIS":"548.037","INCLINATION":"53.0570","RA_OF_ASC_NODE":"5.8001","MEAN_MOTION_DDOT":"0.0000000000000","REF_FRAME":"TEME","EPOCH":"2022-08-05T19:50:19.891968","SEMIMAJOR_AXIS":"6925.335","ARG_OF_PERICENTER":"89.9206","ELEMENT_SET_NO":"999","EPHEMERIS_TYPE":"0","TLE_LINE1":"1 45732U 20038C   22217.82661912  .00000734  00000-0  68172-4 0  9995","GP_ID":"209630953","TIME_SYSTEM":"UTC","LAUNCH_DATE":"2020-06-13","NORAD_CAT_ID":"45732","PERIAPSIS":"546.362","OBJECT_TYPE":"PAYLOAD","MEAN_ANOMALY":"270.1921","MEAN_ELEMENT_THEORY":"SGP4","ECCENTRICITY":"0.00012090","COUNTRY_CODE":"US","MEAN_MOTION_DOT":"0.00000734","REV_AT_EPOCH":"11958","MEAN_MOTION":"15.06404507","CLASSIFICATION_TYPE":"U","BSTAR":"0.00006817200000","PERIOD":"95.592","TLE_LINE2":"2 45732  53.0570   5.8001 0001209  89.9206 270.1921 15.06404507119581","OBJECT_NAME":"STARLINK-1466","OBJECT_ID":"2020-038C","DECAY_DATE":null,"SITE":"AFETR"},{"SEMIMAJOR_AXIS":"6924.449","EPOCH":"2022-08-05T19:58:04.714464","REF_FRAME":"TEME","RA_OF_ASC_NODE":"5.7480","MEAN_MOTION_DDOT":"0.0000000000000","INCLINATION":"53.0542","APOAPSIS":"547.468","RCS_SIZE":"LARGE","CENTER_NAME":"EARTH","FILE":"3529842","LAUNCH_DATE":"2020-06-13","NORAD_CAT_ID":"45733","TIME_SYSTEM":"UTC","GP_ID":"209630679","TLE_LINE1":"1 45733U 20038D   22217.83199901  .00008182  00000-0  56313-3 0  9999","EPHEMERIS_TYPE":"0","ELEMENT_SET_NO":"999","ARG_OF_PERICENTER":"82.5550","MEAN_MOTION_DOT":"0.00008182","ECCENTRICITY":"0.00016670","COUNTRY_CODE":"US","MEAN_ANOMALY":"277.5628","MEAN_ELEMENT_THEORY":"SGP4","OBJECT_TYPE":"PAYLOAD","PERIAPSIS":"545.160","DECAY_DATE":null,"SITE":"AFETR","OBJECT_NAME":"STARLINK-1467","OBJECT_ID":"2020-038D","TLE_LINE2":"2 45733  53.0542   5.7480 0001667  82.5550 277.5628 15.06693544119575","PERIOD":"95.574","BSTAR":"0.00056313000000","CLASSIFICATION_TYPE":"U","MEAN_MOTION":"15.06693544","REV_AT_EPOCH":"11957"},{"NORAD_CAT_ID":"45734","LAUNCH_DATE":"2020-06-13","TIME_SYSTEM":"UTC","TLE_LINE1":"1 45734U 20038E   22217.81555936  .00000168  00000-0  30180-4 0  9993","GP_ID":"209654194","EPHEMERIS_TYPE":"0","ELEMENT_SET_NO":"999","ARG_OF_PERICENTER":"81.0823","SEMIMAJOR_AXIS":"6925.324","EPOCH":"2022-08-05T19:34:24.328704","REF_FRAME":"TEME","MEAN_MOTION_DDOT":"0.0000000000000","RA_OF_ASC_NODE":"5.8581","INCLINATION":"53.0562","APOAPSIS":"548.175","RCS_SIZE":"LARGE","CENTER_NAME":"EARTH","FILE":"3530042","SITE":"AFETR","DECAY_DATE":null,"OBJECT_NAME":"STARLINK-1468","OBJECT_ID":"2020-038E","TLE_LINE2":"2 45734  53.0562   5.8581 0001423  81.0823 279.0327 15.06407984118469","PERIOD":"95.592","BSTAR":"0.00003018000000","CLASSIFICATION_TYPE":"U","REV_AT_EPOCH":"11846","MEAN_MOTION":"15.06407984","MEAN_MOTION_DOT":"0.00000168","COUNTRY_CODE":"US","ECCENTRICITY":"0.00014230","MEAN_ANOMALY":"279.0327","MEAN_ELEMENT_THEORY":"SGP4","OBJECT_TYPE":"PAYLOAD","PERIAPSIS":"546.204"},{"ELEMENT_SET_NO":"999","ARG_OF_PERICENTER":"106.3881","TIME_SYSTEM":"UTC","NORAD_CAT_ID":"45735","LAUNCH_DATE":"2020-06-13","EPHEMERIS_TYPE":"0","GP_ID":"209653945","TLE_LINE1":"1 45735U 20038F   22217.78608016  .00001778  00000-0  13821-3 0  9998","APOAPSIS":"548.160","INCLINATION":"53.0552","MEAN_MOTION_DDOT":"0.0000000000000","RA_OF_ASC_NODE":"5.9969","FILE":"3530042","CENTER_NAME":"EARTH","RCS_SIZE":"LARGE","EPOCH":"2022-08-05T18:51:57.325824","SEMIMAJOR_AXIS":"6925.364","REF_FRAME":"TEME","CLASSIFICATION_TYPE":"U","BSTAR":"0.00013821000000","MEAN_MOTION":"15.06395033","REV_AT_EPOCH":"11845","DECAY_DATE":null,"SITE":"AFETR","PERIOD":"95.592","TLE_LINE2":"2 45735  53.0552   5.9969 0001344 106.3881 253.7256 15.06395033118457","OBJECT_ID":"2020-038F","OBJECT_NAME":"STARLINK-1471","MEAN_ANOMALY":"253.7256","MEAN_ELEMENT_THEORY":"SGP4","COUNTRY_CODE":"US","ECCENTRICITY":"0.00013440","PERIAPSIS":"546.298","OBJECT_TYPE":"PAYLOAD","MEAN_MOTION_DOT":"0.00001778"},{"TIME_SYSTEM":"UTC","LAUNCH_DATE":"2020-06-13","NORAD_CAT_ID":"45736","EPHEMERIS_TYPE":"0","GP_ID":"209630972","TLE_LINE1":"1 45736U 20038G   22217.79879240  .00005850  00000-0  16102-3 0  9999","ELEMENT_SET_NO":"999","ARG_OF_PERICENTER":"89.1184","EPOCH":"2022-08-05T19:10:15.663360","SEMIMAJOR_AXIS":"6828.216","REF_FRAME":"TEME","RA_OF_ASC_NODE":"326.3774","MEAN_MOTION_DDOT":"0.0000000000000","APOAPSIS":"452.337","INCLINATION":"53.0626","RCS_SIZE":"LARGE","FILE":"3529843","CENTER_NAME":"EARTH","SITE":"AFETR","DECAY_DATE":null,"OBJECT_NAME":"STARLINK-1472","OBJECT_ID":"2020-038G","PERIOD":"93.588","TLE_LINE2":"2 45736  53.0626 326.3774 0003304  89.1184 271.0198 15.38657336120145","CLASSIFICATION_TYPE":"U","BSTAR":"0.00016102000000","MEAN_MOTION":"15.38657336","REV_AT_EPOCH":"12014","MEAN_MOTION_DOT":"0.00005850","MEAN_ANOMALY":"271.0198","MEAN_ELEMENT_THEORY":"SGP4","COUNTRY_CODE":"US","ECCENTRICITY":"0.00033040","OBJECT_TYPE":"PAYLOAD","PERIAPSIS":"447.825"},{"EPHEMERIS_TYPE":"0","GP_ID":"209630699","TLE_LINE1":"1 45738U 20038J   22217.84136080  .00000748  00000-0  69061-4 0  9999","TIME_SYSTEM":"UTC","NORAD_CAT_ID":"45738","LAUNCH_DATE":"2020-06-13","ARG_OF_PERICENTER":"90.4917","ELEMENT_SET_NO":"999","REF_FRAME":"TEME","EPOCH":"2022-08-05T20:11:33.573120","SEMIMAJOR_AXIS":"6925.336","FILE":"3529843","CENTER_NAME":"EARTH","RCS_SIZE":"LARGE","APOAPSIS":"548.066","INCLINATION":"53.0558","RA_OF_ASC_NODE":"5.7478","MEAN_MOTION_DDOT":"0.0000000000000","PERIOD":"95.592","TLE_LINE2":"2 45738  53.0558   5.7478 0001249  90.4917 269.6215 15.06404062119585","OBJECT_ID":"2020-038J","OBJECT_NAME":"STARLINK-1474","SITE":"AFETR","DECAY_DATE":null,"REV_AT_EPOCH":"11958","MEAN_MOTION":"15.06404062","CLASSIFICATION_TYPE":"U","BSTAR":"0.00006906100000","MEAN_MOTION_DOT":"0.00000748","PERIAPSIS":"546.336","OBJECT_TYPE":"PAYLOAD","MEAN_ANOMALY":"269.6215","MEAN_ELEMENT_THEORY":"SGP4","COUNTRY_CODE":"US","ECCENTRICITY":"0.00012490"},{"RCS_SIZE":"LARGE","FILE":"3529844","CENTER_NAME":"EARTH","RA_OF_ASC_NODE":"325.9636","MEAN_MOTION_DDOT":"0.0000000000000","INCLINATION":"53.0579","APOAPSIS":"548.946","REF_FRAME":"TEME","SEMIMAJOR_AXIS":"6925.649","EPOCH":"2022-08-05T18:56:00.428640","ARG_OF_PERICENTER":"77.2980","ELEMENT_SET_NO":"999","TLE_LINE1":"1 45739U 20038K   22217.78889385 -.00007335  00000-0 -47527-3 0  9999","GP_ID":"209630718","EPHEMERIS_TYPE":"0","NORAD_CAT_ID":"45739","LAUNCH_DATE":"2020-06-13","TIME_SYSTEM":"UTC","OBJECT_TYPE":"PAYLOAD","PERIAPSIS":"546.082","COUNTRY_CODE":"US","ECCENTRICITY":"0.00020670","MEAN_ANOMALY":"282.8240","MEAN_ELEMENT_THEORY":"SGP4","MEAN_MOTION_DOT":"-0.00007335","REV_AT_EPOCH":"11998","MEAN_MOTION":"15.06301983","BSTAR":"-0.00047527000000","CLASSIFICATION_TYPE":"U","OBJECT_NAME":"STARLINK-1475","OBJECT_ID":"2020-038K","TLE_LINE2":"2 45739  53.0579 325.9636 0002067  77.2980 282.8240 15.06301983119981","PERIOD":"95.598","DECAY_DATE":null,"SITE":"AFETR"},{"ARG_OF_PERICENTER":"91.5080","ELEMENT_SET_NO":"999","EPHEMERIS_TYPE":"0","TLE_LINE1":"1 45740U 20038L   22217.84874524  .00000430  00000-0  47757-4 0  9990","GP_ID":"209654444","TIME_SYSTEM":"UTC","NORAD_CAT_ID":"45740","LAUNCH_DATE":"2020-06-13","RCS_SIZE":"LARGE","FILE":"3530042","CENTER_NAME":"EARTH","MEAN_MOTION_DDOT":"0.0000000000000","RA_OF_ASC_NODE":"5.7091","APOAPSIS":"548.251","INCLINATION":"53.0563","REF_FRAME":"TEME","EPOCH":"2022-08-05T20:22:11.588736","SEMIMAJOR_AXIS":"6925.377","MEAN_MOTION":"15.06390689","REV_AT_EPOCH":"11846","CLASSIFICATION_TYPE":"U","BSTAR":"0.00004775700000","OBJECT_NAME":"STARLINK-1479","OBJECT_ID":"2020-038L","PERIOD":"95.593","TLE_LINE2":"2 45740  53.0563   5.7091 0001457  91.5080 268.6076 15.06390689118468","SITE":"AFETR","DECAY_DATE":null,"OBJECT_TYPE":"PAYLOAD","PERIAPSIS":"546.233","MEAN_ANOMALY":"268.6076","MEAN_ELEMENT_THEORY":"SGP4","ECCENTRICITY":"0.00014570","COUNTRY_CODE":"US","MEAN_MOTION_DOT":"0.00000430"},{"REF_FRAME":"TEME","SEMIMAJOR_AXIS":"6925.370","EPOCH":"2022-08-05T19:39:44.327520","RCS_SIZE":"LARGE","FILE":"3529845","CENTER_NAME":"EARTH","RA_OF_ASC_NODE":"5.8391","MEAN_MOTION_DDOT":"0.0000000000000","INCLINATION":"53.0552","APOAPSIS":"548.290","TLE_LINE1":"1 45741U 20038M   22217.81926305  .00004336  00000-0  30988-3 0  9999","GP_ID":"209630733","EPHEMERIS_TYPE":"0","LAUNCH_DATE":"2020-06-13","NORAD_CAT_ID":"45741","TIME_SYSTEM":"UTC","ARG_OF_PERICENTER":"98.9362","ELEMENT_SET_NO":"999","MEAN_MOTION_DOT":"0.00004336","OBJECT_TYPE":"PAYLOAD","PERIAPSIS":"546.180","ECCENTRICITY":"0.00015230","COUNTRY_CODE":"US","MEAN_ELEMENT_THEORY":"SGP4","MEAN_ANOMALY":"261.1799","OBJECT_NAME":"STARLINK-1480","OBJECT_ID":"2020-038M","TLE_LINE2":"2 45741  53.0552   5.8391 0001523  98.9362 261.1799 15.06393006119589","PERIOD":"95.593","SITE":"AFETR","DECAY_DATE":null,"REV_AT_EPOCH":"11958","MEAN_MOTION":"15.06393006","BSTAR":"0.00030988000000","CLASSIFICATION_TYPE":"U"}];
